EYESAT A (AO-27)        
1 22825U 93061C   26139.19114233  .00000057  00000+0  38557-4 0  9996
2 22825  98.6890 206.6132 0008427 177.7148 182.4074 14.30933524702859
ITAMSAT (IO-26)         
1 22826U 93061D   26139.17919176  .00000053  00000+0  36964-4 0  9990
2 22826  98.6838 206.5158 0009272 161.9333 198.2181 14.31359528703165
RADIO ROSTO (RS15)      
1 23439U 94085A   26139.20334084 -.00000046  00000+0 -88244-4 0  9993
2 23439  64.8187 350.0929 0155141   9.1947 351.1762 11.27583623292637
JAS-2 (FO-29)           
1 24278U 96046B   26139.18031943  .00000008  00000+0  42773-4 0  9992
2 24278  98.5268 352.0215 0350025 171.5564 189.1680 13.53272764469243
FORTE                   
1 24920U 97047A   26139.16436281  .00000092  00000+0  60476-4 0  9993
2 24920  69.9530  79.5741 0023917 312.8147  47.0964 14.27931915494540
TECHSAT 1B (GO-32)      
1 25397U 98043D   26138.49202487  .00000014  00000+0  26185-4 0  9996
2 25397  99.0065 130.5034 0000706   0.3468 359.7710 14.24422024447100
ISS (ZARYA)             
1 25544U 98067A   26139.16549516  .00005281  00000+0  10297-3 0  9995
2 25544  51.6326  83.7685 0007549  74.4022 285.7799 15.49268281567254
IMAGE                   
1 26113U 00017A   26136.85091226  .00000032  00000+0  11883-1 0  9998
2 26113  94.2039 314.9580 7455478 291.3690   8.2558  1.68665369160973
CLUSTER II-FM7 (SAMBA)  
1 26410U 00041A   26139.13281146  .00006663  00000+0  00000+0 0  9994
2 26410 149.8437  45.8867 9018559 262.6588   0.3747  0.44883482 20186
CLUSTER II-FM8 (TANGO)  
1 26464U 00045B   26139.14721283  .00006855  00000+0  00000+0 0  9992
2 26464 150.1023  46.8868 9025763 263.5226   0.1578  0.44397908 20179
ODIN                    
1 26702U 01007A   26139.05186926  .00088401  00000+0  82078-3 0  9991
2 26702  97.3906 178.3155 0003429 182.6331 177.4913 15.67160557384825
OMNI-M1                 
1 26857U 01026A   26136.37865379 -.00000011  00000+0  00000+0 0  9994
2 26857  44.8421 252.5957 0015297  48.1988 311.9568  3.92401279204321
PCSAT (NO-44)           
1 26931U 01043C   26138.96382146  .00000049  00000+0  49374-4 0  9991
2 26931  67.0508 319.8567 0006221 263.5819  96.4575 14.31943664286264
PROBA-1                 
1 26958U 01049B   26139.19509925  .00000509  00000+0  37256-4 0  9995
2 26958  97.9602 146.7174 0053835 219.5293 140.2002 15.07372628339252
SAUDISAT 1C (SO-50)     
1 27607U 02058C   26139.22617213  .00000546  00000+0  82315-4 0  9999
2 27607  64.5520 218.5847 0075619 267.7735  91.4711 14.82979501260160
CORIOLIS                
1 27640U 03001A   26139.02458490  .00000049  00000+0  43432-4 0  9998
2 27640  98.7133 146.3543 0012914 299.4204  60.5683 14.19936155210088
CUTE-1 (CO-55)          
1 27844U 03031E   26139.02455345  .00000182  00000+0  97947-4 0  9991
2 27844  98.6744 147.9502 0008279 270.3136  89.7095 14.24315983187522
CUBESAT XI-IV (CO-57)   
1 27848U 03031J   26138.29557300  .00000143  00000+0  81891-4 0  9995
2 27848  98.6776 146.9670 0008279 294.1039  65.9273 14.23603354187123
MOZHAETS 4 (RS22)       
1 27939U 03042A   26138.95866978  .00000734  00000+0  12137-3 0  9997
2 27939  98.3461 322.4935 0011465   8.4617 134.1277 14.73410853211245
