OBJECT_NAME,OBJECT_ID,EPOCH,MEAN_MOTION,ECCENTRICITY,INCLINATION,RA_OF_ASC_NODE,ARG_OF_PERICENTER,MEAN_ANOMALY,EPHEMERIS_TYPE,CLASSIFICATION_TYPE,NORAD_CAT_ID,ELEMENT_SET_NO,REV_AT_EPOCH,BSTAR,MEAN_MOTION_DOT,MEAN_MOTION_DDOT
EYESAT A (AO-27),1993-061C,2026-05-19T04:35:14.697312,14.30933524,.0008427,98.6890,206.6132,177.7148,182.4074,0,U,22825,999,70285,.38557E-4,.57E-6,0
ITAMSAT (IO-26),1993-061D,2026-05-19T04:18:02.168064,14.31359528,.0009272,98.6838,206.5158,161.9333,198.2181,0,U,22826,999,70316,.36964E-4,.53E-6,0
RADIO ROSTO (RS15),1994-085A,2026-05-19T04:52:48.648576,11.27583623,.0155141,64.8187,350.0929,9.1947,351.1762,0,U,23439,999,29263,-.88244E-4,-.46E-6,0
JAS-2 (FO-29),1996-046B,2026-05-19T04:19:39.598752,13.53272764,.0350025,98.5268,352.0215,171.5564,189.1680,0,U,24278,999,46924,.42773E-4,.8E-7,0
FORTE,1997-047A,2026-05-19T03:56:40.946784,14.27931915,.0023917,69.9530,79.5741,312.8147,47.0964,0,U,24920,999,49454,.60476E-4,.92E-6,0
TECHSAT 1B (GO-32),1998-043D,2026-05-18T11:48:30.948768,14.24422024,.00007061,99.0065,130.5034,0.3468,359.7710,0,U,25397,999,44710,.26185017E-4,.14E-6,0
ISS (ZARYA),1998-067A,2026-05-19T03:58:18.781824,15.49268281,.0007549,51.6326,83.7685,74.4022,285.7799,0,U,25544,999,56725,.10297E-3,.5281E-4,0
IMAGE,2000-017A,2026-05-16T20:25:18.819264,1.68665369,.74554789,94.2039,314.9580,291.3690,8.2558,0,U,26113,999,16097,.11882681E-1,.32E-6,0
CLUSTER II-FM7 (SAMBA),2000-041A,2026-05-19T03:11:14.910144,0.44883482,.90185594,149.8437,45.8867,262.6588,0.3747,0,U,26410,999,2018,0,.6663E-4,0
CLUSTER II-FM8 (TANGO),2000-045B,2026-05-19T03:31:59.188512,0.44397908,.90257633,150.1023,46.8868,263.5226,0.1578,0,U,26464,999,2017,0,.6855E-4,0
ODIN,2001-007A,2026-05-19T01:14:41.504064,15.67160557,.0003429,97.3906,178.3155,182.6331,177.4913,0,U,26702,999,38482,.82078E-3,.88401E-3,0
OMNI-M1,2001-026A,2026-05-16T09:05:15.687456,3.92401279,.00152975,44.8421,252.5957,48.1988,311.9568,0,U,26857,999,20432,0,-.11E-6,0
PCSAT (NO-44),2001-043C,2026-05-18T23:07:54.174144,14.31943664,.0006221,67.0508,319.8567,263.5819,96.4575,0,U,26931,999,28626,.49374E-4,.49E-6,0
PROBA-1,2001-049B,2026-05-19T04:40:56.575200,15.07372628,.0053835,97.9602,146.7174,219.5293,140.2002,0,U,26958,999,33925,.37256E-4,.509E-5,0
SAUDISAT 1C (SO-50),2002-058C,2026-05-19T05:25:41.272032,14.82979501,.0075619,64.5520,218.5847,267.7735,91.4711,0,U,27607,999,26016,.82315E-4,.546E-5,0
CORIOLIS,2003-001A,2026-05-19T00:35:24.135360,14.19936155,.0012914,98.7133,146.3543,299.4204,60.5683,0,U,27640,999,21008,.43432E-4,.49E-6,0
CUTE-1 (CO-55),2003-031E,2026-05-19T00:35:21.418080,14.24315983,.0008279,98.6744,147.9502,270.3136,89.7095,0,U,27844,999,18752,.97947E-4,.182E-5,0
CUBESAT XI-IV (CO-57),2003-031J,2026-05-18T07:05:37.507200,14.23603354,.00082798,98.6776,146.9670,294.1039,65.9273,0,U,27848,999,18712,.81891215E-4,.143E-5,0
MOZHAETS 4 (RS22),2003-042A,2026-05-18T23:00:29.068992,14.73410853,.00114655,98.3461,322.4935,8.4617,134.1277,0,U,27939,999,21124,.12136931E-3,.734E-5,0
